HAWK-11B                
1 62379U 24247C   26068.44730104  .00009093  00000+0  32842-3 0  9993
2 62379  45.0161 115.7610 0004690 333.0326  27.0314 15.28847070 67738
STARLINK-34186          
1 64145U 25111Y   26068.43961354  .00016533  00000+0  60827-3 0  9990
2 64145  43.0012  79.4066 0001391 285.7216  74.3482 15.27617234 45420
